NORAD_CAT_ID,OBJECT_NAME,OBJECT_TYPE,EPOCH,MEAN_MOTION,ECCENTRICITY,INCLINATION,RA_OF_ASC_NODE,ARG_OF_PERICENTER,MEAN_ANOMALY,BSTAR,MEAN_MOTION_DOT,MEAN_MOTION_DDOT,TLE_LINE0,TLE_LINE1,TLE_LINE2,SEMIMAJOR_AXIS,PERIOD,APOGEE,PERIGEE,DECAYED
53029.0,STARLINK-4143,PAYLOAD,2023-03-04 18:55:34,15.08838665,0.0001762,53.2191,336.2574,92.4408,267.6786,0.00085801,0.00013393,0.0,0 STARLINK-4143,1 53029U 22076AV  23063.78858831  .00013393  00000-0  85801-3 0  9992,2 53029  53.2191 336.2574 0001762  92.4408 267.6786 15.08838665 37399,6917.884,95.438,540.968,538.531,0.0
53029.0,STARLINK-4143,PAYLOAD,2023-03-05 01:17:07,15.08822585,0.0001454,53.2194,335.0688,67.2398,292.8747,0.00083944,0.00013091,0.0,0 STARLINK-4143,1 53029U 22076AV  23064.05355383  .00013091  00000-0  83944-3 0  9998,2 53029  53.2194 335.0688 0001454  67.2398 292.8747 15.08822585 37437,6917.934,95.439,540.804,538.793,0.0
53029.0,STARLINK-4143,PAYLOAD,2023-03-05 21:57:08,15.08841881,0.0001391,53.2187,331.2045,72.3067,287.8077,0.00093942,0.00014695,0.0,0 STARLINK-4143,1 53029U 22076AV  23064.91467994  .00014695  00000-0  93942-3 0  9995,2 53029  53.2187 331.2045 0001391  72.3067 287.8077 15.08841881 37096,6917.875,95.437,540.702,538.777,0.0
53029.0,STARLINK-4143,PAYLOAD,2023-03-06 02:43:17,15.08877966,0.0001371,53.2175,330.3111,64.9682,295.1452,0.0025201,0.0004009,0.0,0 STARLINK-4143,1 53029U 22076AV  23065.11339586  .00040090  00000-0  25201-2 0  9993,2 53029  53.2175 330.3111 0001371  64.9682 295.1452 15.08877966 37592,6917.764,95.435,540.578,538.681,0.0
53029.0,STARLINK-4143,PAYLOAD,2023-03-07 00:58:41,15.08848324,0.0001904,53.2172,326.1499,71.9703,288.1496,0.0014094,0.00022219,0.0,0 STARLINK-4143,1 53029U 22076AV  23066.04076353  .00022219  00000-0  14094-2 0  9997,2 53029  53.2172 326.1499 0001904  71.9703 288.1496 15.08848324 37737,6917.855,95.437,541.037,538.403,0.0
53029.0,STARLINK-4143,PAYLOAD,2023-03-07 16:52:33,15.08823734,0.0001556,53.2167,323.1724,92.0838,268.0332,0.0021647,0.00034316,0.0,0 STARLINK-4143,1 53029U 22076AV  23066.70316382  .00034316  00000-0  21647-2 0  9992,2 53029  53.2167 323.1724 0001556  92.0838 268.0332 15.08823734 37830,6917.93,95.439,540.872,538.719,0.0
53029.0,STARLINK-4143,PAYLOAD,2023-03-07 23:14:05,15.08859517,0.0001656,53.2159,321.9848,96.1594,263.9587,0.0020048,0.0003178,0.0,0 STARLINK-4143,1 53029U 22076AV  23066.96812002  .00031780  00000-0  20048-2 0  9996,2 53029  53.2159 321.9848 0001656  96.1594 263.9587 15.08859517 37406,6917.821,95.436,540.831,538.54,0.0
53029.0,STARLINK-4143,PAYLOAD,2023-03-08 02:24:51,15.08877759,0.0001847,53.2158,321.39,87.2338,272.8866,0.002923,0.00046588,0.0,0 STARLINK-4143,1 53029U 22076AV  23067.10059713  .00046588  00000-0  29230-2 0  9999,2 53029  53.2158 321.3900 0001847  87.2338 272.8866 15.08877759 37897,6917.765,95.435,540.908,538.352,0.0
53029.0,STARLINK-4143,PAYLOAD,2023-03-08 16:43:20,15.08852123,0.0003642,53.2147,318.7134,86.4294,273.7114,0.0024553,0.00039021,0.0,0 STARLINK-4143,1 53029U 22076AV  23067.69676806  .00039021  00000-0  24553-2 0  9998,2 53029  53.2147 318.7134 0003642  86.4294 273.7114 15.08852123 37514,6917.843,95.437,542.228,537.189,0.0
53029.0,STARLINK-4143,PAYLOAD,2023-03-08 23:04:53,15.08849414,0.000171,53.2167,317.5237,65.027,295.0899,0.00256,0.00040701,0.0,0 STARLINK-4143,1 53029U 22076AV  23067.96172880  .00040701  00000-0  25600-2 0  9992,2 53029  53.2167 317.5237 0001710  65.0270 295.0899 15.08849414 38021,6917.852,95.437,540.9,538.534,0.0
53029.0,STARLINK-4143,PAYLOAD,2023-03-09 19:44:53,15.08869063,0.000179,53.2164,313.6575,61.4918,298.6254,0.0019811,0.00031407,0.0,0 STARLINK-4143,1 53029U 22076AV  23068.82284662  .00031407  00000-0  19811-2 0  9990,2 53029  53.2164 313.6575 0001790  61.4918 298.6254 15.08869063 38157,6917.792,95.436,540.895,538.418,0.0
53029.0,STARLINK-4143,PAYLOAD,2023-03-09 21:20:17,15.08859539,0.0001791,53.2172,313.3625,65.8881,294.2298,0.0011036,0.00017329,0.0,0 STARLINK-4143,1 53029U 22076AV  23068.88908569  .00017329  00000-0  11036-2 0  9993,2 53029  53.2172 313.3625 0001791  65.8881 294.2298 15.08859539 37692,6917.821,95.436,540.925,538.447,0.0
53029.0,STARLINK-4143,PAYLOAD,2023-03-10 19:35:41,15.08823954,0.000133,53.2169,309.1985,81.136,278.9783,-0.00034747,-5.811e-05,0.0,0 STARLINK-4143,1 53029U 22076AV  23069.81645057 -.00005811  00000-0 -34747-3 0  9997,2 53029  53.2169 309.1985 0001330  81.1360 278.9783 15.08823954 38301,6917.929,95.439,540.715,538.874,0.0
53029.0,STARLINK-4143,PAYLOAD,2023-03-10 21:11:04,15.0882592,0.0001412,53.2167,308.9007,86.3973,273.7181,-0.00018132,-3.171e-05,0.0,0 STARLINK-4143,1 53029U 22076AV  23069.88269098 -.00003171  00000-0 -18132-3 0  9998,2 53029  53.2167 308.9007 0001412  86.3973 273.7181 15.08825920 37847,6917.923,95.438,540.765,538.812,0.0
53029.0,STARLINK-4143,PAYLOAD,2023-03-11 01:57:13,15.08837517,0.0001384,53.2161,308.0077,98.8333,261.2816,0.00060372,9.333e-05,0.0,0 STARLINK-4143,1 53029U 22076AV  23070.08141091  .00009333  00000-0  60372-3 0  9991,2 53029  53.2161 308.0077 0001384  98.8333 261.2816 15.08837517 38343,6917.888,95.438,540.71,538.796,0.0
53029.0,STARLINK-4143,PAYLOAD,2023-03-12 01:48:01,15.08857429,0.0001568,53.2165,303.5462,97.2023,262.9147,0.0012392,0.00019498,0.0,0 STARLINK-4143,1 53029U 22076AV  23071.07501223  .00019498  00000-0  12392-2 0  9999,2 53029  53.2165 303.5462 0001568  97.2023 262.9147 15.08857429 38022,6917.827,95.436,540.777,538.607,0.0
53029.0,STARLINK-4143,PAYLOAD,2023-03-12 14:31:05,15.08855247,0.0001574,53.2159,301.1683,111.6297,248.4862,0.00085025,0.00013275,0.0,0 STARLINK-4143,1 53029U 22076AV  23071.60493014  .00013275  00000-0  85025-3 0  9997,2 53029  53.2159 301.1683 0001574 111.6297 248.4862 15.08855247 38574,6917.834,95.437,540.788,538.61,0.0
53029.0,STARLINK-4143,PAYLOAD,2023-03-12 16:06:29,15.08851258,0.000161,53.216,300.8708,113.543,246.5731,0.0013629,0.00021476,0.0,0 STARLINK-4143,1 53029U 22076AV  23071.67117198  .00021476  00000-0  13629-2 0  9992,2 53029  53.2160 300.8708 0001610 113.5430 246.5731 15.08851258 38113,6917.846,95.437,540.825,538.597,0.0
53029.0,STARLINK-4143,PAYLOAD,2023-03-13 01:38:47,15.08854176,0.0001394,53.2157,299.0871,108.1601,251.9543,0.00089635,0.00014012,0.0,0 STARLINK-4143,1 53029U 22076AV  23072.06860966  .00014012  00000-0  89635-3 0  9993,2 53029  53.2157 299.0871 0001394 108.1601 251.9543 15.08854176 38649,6917.837,95.437,540.666,538.738,0.0
53029.0,STARLINK-4143,PAYLOAD,2023-03-13 14:21:53,15.08840998,0.000132,53.2165,296.7063,100.4851,259.6289,0.00063694,9.864e-05,0.0,0 STARLINK-4143,1 53029U 22076AV  23072.59853600  .00009864  00000-0  63694-3 0  9994,2 53029  53.2165 296.7063 0001320 100.4851 259.6289 15.08840998 38252,6917.877,95.437,540.655,538.829,0.0
53029.0,STARLINK-4143,PAYLOAD,2023-03-13 22:18:49,15.08838643,0.0001068,53.2166,295.2202,92.4016,267.7099,0.00070975,0.00011025,0.0,0 STARLINK-4143,1 53029U 22076AV  23072.92973776  .00011025  00000-0  70975-3 0  9990,2 53029  53.2166 295.2202 0001068  92.4016 267.7099 15.08838643 38303,6917.885,95.438,540.488,539.011,0.0
53029.0,STARLINK-4143,PAYLOAD,2023-03-14 01:29:35,15.08841072,0.0001084,53.2166,294.6247,89.0373,271.0743,0.00052552,8.086e-05,0.0,0 STARLINK-4143,1 53029U 22076AV  23073.06221790  .00008086  00000-0  52552-3 0  9992,2 53029  53.2166 294.6247 0001084  89.0373 271.0743 15.08841072 38798,6917.877,95.437,540.492,538.992,0.0
53029.0,STARLINK-4143,PAYLOAD,2023-03-14 14:12:40,15.08845175,0.0001268,53.2154,292.2466,79.7079,280.4056,0.00068365,0.00010611,0.0,0 STARLINK-4143,1 53029U 22076AV  23073.59213945  .00010611  00000-0  68365-3 0  9999,2 53029  53.2154 292.2466 0001268  79.7079 280.4056 15.08845175 38402,6917.865,95.437,540.607,538.852,0.0
53029.0,STARLINK-4143,PAYLOAD,2023-03-14 20:34:13,15.08855011,0.0001085,53.2146,291.0568,89.1493,270.9623,0.00082576,0.00012884,0.0,0 STARLINK-4143,1 53029U 22076AV  23073.85709555  .00012884  00000-0  82576-3 0  9999,2 53029  53.2146 291.0568 0001085  89.1493 270.9623 15.08855011 38443,6917.835,95.437,540.45,538.949,0.0
53029.0,STARLINK-4143,PAYLOAD,2023-03-14 22:09:36,15.08861311,0.000131,53.2152,290.7601,77.3772,282.7366,0.00098146,0.00015376,0.0,0 STARLINK-4143,1 53029U 22076AV  23073.92333450  .00015376  00000-0  98146-3 0  9993,2 53029  53.2152 290.7601 0001310  77.3772 282.7366 15.08861311 38450,6917.815,95.436,540.586,538.774,0.0
53029.0,STARLINK-4143,PAYLOAD,2023-03-15 20:24:59,15.08861217,0.0001144,53.2148,286.5965,84.0448,276.0675,0.00068651,0.00010661,0.0,0 STARLINK-4143,1 53029U 22076AV  23074.85068915  .00010661  00000-0  68651-3 0  9997,2 53029  53.2148 286.5965 0001144  84.0448 276.0675 15.08861217 39063,6917.816,95.436,540.472,538.889,0.0
53029.0,STARLINK-4143,PAYLOAD,2023-03-16 20:15:47,15.08832896,0.0001075,53.2159,282.1377,57.0409,303.0687,0.0005626,8.675e-05,0.0,0 STARLINK-4143,1 53029U 22076AV  23075.84429967  .00008675  00000-0  56260-3 0  9990,2 53029  53.2159 282.1377 0001075  57.0409 303.0687 15.08832896 38743,6917.902,95.438,540.511,539.023,0.0
53029.0,STARLINK-4143,PAYLOAD,2023-03-16 23:26:33,15.08833859,0.0001095,53.2155,281.5426,57.9672,302.1427,0.00049652,7.622e-05,0.0,0 STARLINK-4143,1 53029U 22076AV  23075.97678014  .00007622  00000-0  49652-3 0  9991,2 53029  53.2155 281.5426 0001095  57.9672 302.1427 15.08833859 39237,6917.899,95.438,540.522,539.007,0.0
53029.0,STARLINK-4143,PAYLOAD,2023-03-17 13:45:02,15.08840284,0.0001105,53.2155,278.8654,60.877,299.2333,0.00042102,6.419e-05,0.0,0 STARLINK-4143,1 53029U 22076AV  23076.57294104  .00006419  00000-0  42102-3 0  9998,2 53029  53.2155 278.8654 0001105  60.8770 299.2333 15.08840284 38852,6917.88,95.438,540.509,538.98,0.0
53029.0,STARLINK-4143,PAYLOAD,2023-03-17 20:06:34,15.08850485,0.0001173,53.2146,277.6763,64.8328,295.2786,0.00058844,9.092e-05,0.0,0 STARLINK-4143,1 53029U 22076AV  23076.83789811  .00009092  00000-0  58844-3 0  9991,2 53029  53.2146 277.6763 0001173  64.8328 295.2786 15.08850485 38894,6917.848,95.437,540.525,538.902,0.0
